CCSDS_OMM_VERS = 2.0
CREATION_DATE  = 
ORIGINATOR     = 

OBJECT_NAME    = GLOBAL-34
OBJECT_ID      = 2026-043A
CENTER_NAME    = EARTH
REF_FRAME      = TEME
TIME_SYSTEM    = UTC
MEAN_ELEMENT_THEORY = SGP/SGP4

EPOCH          = 2026-03-08T00:57:28.212768
MEAN_MOTION    = 15.31441878
ECCENTRICITY   = .0006972
INCLINATION    = 42.0211
RA_OF_ASC_NODE = 85.0211
ARG_OF_PERICENTER = 281.9579
MEAN_ANOMALY   = 78.0477

EPHEMERIS_TYPE = 0
CLASSIFICATION_TYPE = U
NORAD_CAT_ID   = 68098
ELEMENT_SET_NO = 999
REV_AT_EPOCH   = 31
BSTAR          = .53704E-3
MEAN_MOTION_DOT = .16455E-3
MEAN_MOTION_DDOT = 0

CCSDS_OMM_VERS = 2.0
CREATION_DATE  = 
ORIGINATOR     = 

OBJECT_NAME    = ELECTRON R/B
OBJECT_ID      = 2026-043B
CENTER_NAME    = EARTH
REF_FRAME      = TEME
TIME_SYSTEM    = UTC
MEAN_ELEMENT_THEORY = SGP/SGP4

EPOCH          = 2026-03-07T23:21:50.888160
MEAN_MOTION    = 15.87876446
ECCENTRICITY   = .0196167
INCLINATION    = 42.0153
RA_OF_ASC_NODE = 84.4449
ARG_OF_PERICENTER = 280.6563
MEAN_ANOMALY   = 77.2259

EPHEMERIS_TYPE = 0
CLASSIFICATION_TYPE = U
NORAD_CAT_ID   = 68099
ELEMENT_SET_NO = 999
REV_AT_EPOCH   = 31
BSTAR          = .14335E-2
MEAN_MOTION_DOT = .245518E-1
MEAN_MOTION_DDOT = .74273E-5

CCSDS_OMM_VERS = 2.0
CREATION_DATE  = 
ORIGINATOR     = 

OBJECT_NAME    = ELECTRON KICK STAGE R/B
OBJECT_ID      = 2026-043C
CENTER_NAME    = EARTH
REF_FRAME      = TEME
TIME_SYSTEM    = UTC
MEAN_ELEMENT_THEORY = SGP/SGP4

EPOCH          = 2026-03-07T12:49:39.018432
MEAN_MOTION    = 15.85533381
ECCENTRICITY   = .01865704
INCLINATION    = 42.1237
RA_OF_ASC_NODE = 87.3350
ARG_OF_PERICENTER = 32.3846
MEAN_ANOMALY   = 328.8306

EPHEMERIS_TYPE = 0
CLASSIFICATION_TYPE = U
NORAD_CAT_ID   = 68100
ELEMENT_SET_NO = 999
REV_AT_EPOCH   = 23
BSTAR          = .21064882E-2
MEAN_MOTION_DOT = .2414689E-1
MEAN_MOTION_DDOT = .7932049E-5

