GLOBAL-34               
1 68098U 26043A   26067.03990987  .00016455  00000+0  53704-3 0  9994
2 68098  42.0211  85.0211 0006972 281.9579  78.0477 15.31441878   314
ELECTRON R/B            
1 68099U 26043B   26066.97350565  .02455180  74273-5  14335-2 0  9998
2 68099  42.0153  84.4449 0196167 280.6563  77.2259 15.87876446   314
ELECTRON KICK STAGE R/B 
1 68100U 26043C   26066.53447938  .02414689  79320-5  21065-2 0  9999
2 68100  42.1237  87.3350 0186570  32.3846 328.8306 15.85533381   232
